{
  "norad_id": 25560,
  "name": "SWAS",
  "history": [
    {
      "epoch": "2026-04-13T04:52:09.124896Z",
      "apogee_km": 543.26741421109,
      "perigee_km": 534.1772776586622,
      "latitude_deg": -5.4553738803410516e-05,
      "longitude_deg": 120.60671959723739,
      "height_km": 537.4082103446234,
      "semi_major_axis_km": 6916.859345934876,
      "eccentricity": 0.0006571,
      "inclination_deg": 69.8974,
      "raan_deg": 35.0418,
      "arg_perigee_deg": 325.5074,
      "mean_anomaly_deg": 34.5662,
      "mean_motion_rev_day": 15.09174107
    },
    {
      "epoch": "2026-04-14T20:38:13.867008Z",
      "apogee_km": 543.3098595989532,
      "perigee_km": 534.0828039343769,
      "latitude_deg": 1.6061172470143013e-05,
      "longitude_deg": -121.81622479853405,
      "height_km": 537.4449419899524,
      "semi_major_axis_km": 6916.833331766665,
      "eccentricity": 0.000667,
      "inclination_deg": 69.8975,
      "raan_deg": 30.7718,
      "arg_perigee_deg": 322.9803,
      "mean_anomaly_deg": 37.09,
      "mean_motion_rev_day": 15.09182621
    },
    {
      "epoch": "2026-04-15T20:29:52.361664Z",
      "apogee_km": 543.3449657865094,
      "perigee_km": 534.0197099551924,
      "latitude_deg": 2.0874098381243192e-05,
      "longitude_deg": -123.26853936523736,
      "height_km": 537.462781000955,
      "semi_major_axis_km": 6916.819337870851,
      "eccentricity": 0.0006741,
      "inclination_deg": 69.8978,
      "raan_deg": 28.2098,
      "arg_perigee_deg": 321.5574,
      "mean_anomaly_deg": 38.5109,
      "mean_motion_rev_day": 15.09187201
    },
    {
      "epoch": "2026-04-16T12:24:17.930016Z",
      "apogee_km": 543.3726127970531,
      "perigee_km": 533.9712860729815,
      "latitude_deg": 1.8870845463917938e-05,
      "longitude_deg": -4.236355103981091,
      "height_km": 537.4718070999361,
      "semi_major_axis_km": 6916.808949435017,
      "eccentricity": 0.0006796,
      "inclination_deg": 69.8979,
      "raan_deg": 26.5018,
      "arg_perigee_deg": 320.6049,
      "mean_anomaly_deg": 39.462,
      "mean_motion_rev_day": 15.09190601
    },
    {
      "epoch": "2026-04-17T21:48:35.145504Z",
      "apogee_km": 543.4389538991118,
      "perigee_km": 533.8558874199762,
      "latitude_deg": -3.727386970402589e-05,
      "longitude_deg": -150.26649042662584,
      "height_km": 537.479132183522,
      "semi_major_axis_km": 6916.784420659544,
      "eccentricity": 0.00069274,
      "inclination_deg": 69.8979,
      "raan_deg": 22.9153,
      "arg_perigee_deg": 318.7231,
      "mean_anomaly_deg": 41.3408,
      "mean_motion_rev_day": 15.09198629
    },
    {
      "epoch": "2026-04-18T12:07:33.689856Z",
      "apogee_km": 543.4635227633753,
      "perigee_km": 533.8023168747704,
      "latitude_deg": -6.691654339389104e-05,
      "longitude_deg": -7.135483916237084,
      "height_km": 537.4751909816474,
      "semi_major_axis_km": 6916.769919819073,
      "eccentricity": 0.00069839,
      "inclination_deg": 69.8979,
      "raan_deg": 21.3782,
      "arg_perigee_deg": 318.0119,
      "mean_anomaly_deg": 42.0508,
      "mean_motion_rev_day": 15.09203375
    },
    {
      "epoch": "2026-04-19T19:56:23.449344Z",
      "apogee_km": 543.4933601494768,
      "perigee_km": 533.7255308191634,
      "latitude_deg": 7.380491462422915e-05,
      "longitude_deg": -129.06521219173652,
      "height_km": 537.4877878569679,
      "semi_major_axis_km": 6916.74644548432,
      "eccentricity": 0.0007061,
      "inclination_deg": 69.8978,
      "raan_deg": 17.9623,
      "arg_perigee_deg": 316.7031,
      "mean_anomaly_deg": 43.3578,
      "mean_motion_rev_day": 15.09211058
    },
    {
      "epoch": "2026-04-20T10:15:21.616992Z",
      "apogee_km": 543.4823695256664,
      "perigee_km": 533.7198087171573,
      "latitude_deg": 1.2365761376916825e-05,
      "longitude_deg": 14.06725538351986,
      "height_km": 537.496508332583,
      "semi_major_axis_km": 6916.738089121412,
      "eccentricity": 0.00070572,
      "inclination_deg": 69.8975,
      "raan_deg": 16.4251,
      "arg_perigee_deg": 316.4443,
      "mean_anomaly_deg": 43.6163,
      "mean_motion_rev_day": 15.09213793
    },
    {
      "epoch": "2026-04-21T19:39:36.585216Z",
      "apogee_km": 543.4865290668431,
      "perigee_km": 533.6454440575635,
      "latitude_deg": -3.4380042872185754e-05,
      "longitude_deg": -131.95369265828924,
      "height_km": 537.5036269812795,
      "semi_major_axis_km": 6916.7029865622035,
      "eccentricity": 0.0007114,
      "inclination_deg": 69.8975,
      "raan_deg": 12.8384,
      "arg_perigee_deg": 315.2648,
      "mean_anomaly_deg": 44.7941,
      "mean_motion_rev_day": 15.09225282
    },
    {
      "epoch": "2026-04-22T19:31:12.602784Z",
      "apogee_km": 543.5061037558999,
      "perigee_km": 533.5889614730377,
      "latitude_deg": 1.868632427270588e-05,
      "longitude_deg": -133.39574457395383,
      "height_km": 537.4953269791927,
      "semi_major_axis_km": 6916.6845326144685,
      "eccentricity": 0.0007169,
      "inclination_deg": 69.8977,
      "raan_deg": 10.2763,
      "arg_perigee_deg": 314.6592,
      "mean_anomaly_deg": 45.3987,
      "mean_motion_rev_day": 15.09231322
    },
    {
      "epoch": "2026-04-23T03:28:24.538080Z",
      "apogee_km": 543.5123770154369,
      "perigee_km": 533.5717258826944,
      "latitude_deg": -1.1506334353256268e-07,
      "longitude_deg": 106.12388641644789,
      "height_km": 537.4902973287261,
      "semi_major_axis_km": 6916.679051449066,
      "eccentricity": 0.0007186,
      "inclination_deg": 69.8978,
      "raan_deg": 9.4223,
      "arg_perigee_deg": 314.5186,
      "mean_anomaly_deg": 45.539,
      "mean_motion_rev_day": 15.09233116
    },
    {
      "epoch": "2026-04-24T20:49:49.972800Z",
      "apogee_km": 543.5608771660936,
      "perigee_km": 533.452893791854,
      "latitude_deg": -5.263498325354245e-05,
      "longitude_deg": -160.37178731760187,
      "height_km": 537.4883757663524,
      "semi_major_axis_km": 6916.643885478973,
      "eccentricity": 0.0007307,
      "inclination_deg": 69.8975,
      "raan_deg": 4.9811,
      "arg_perigee_deg": 313.0773,
      "mean_anomaly_deg": 46.9778,
      "mean_motion_rev_day": 15.09244626
    },
    {
      "epoch": "2026-04-25T20:41:24.830016Z",
      "apogee_km": 543.5347631318773,
      "perigee_km": 533.421288641026,
      "latitude_deg": -2.8877350132986455e-05,
      "longitude_deg": -161.80899958276902,
      "height_km": 537.5163660870994,
      "semi_major_axis_km": 6916.615025886451,
      "eccentricity": 0.0007311,
      "inclination_deg": 69.8979,
      "raan_deg": 2.419,
      "arg_perigee_deg": 312.1745,
      "mean_anomaly_deg": 47.8797,
      "mean_motion_rev_day": 15.09254072
    },
    {
      "epoch": "2026-04-26T20:32:59.159328Z",
      "apogee_km": 543.5053540376402,
      "perigee_km": 533.4025662857712,
      "latitude_deg": -3.8850282810398895e-05,
      "longitude_deg": -163.24411786704076,
      "height_km": 537.5677590281116,
      "semi_major_axis_km": 6916.590960161706,
      "eccentricity": 0.00073033,
      "inclination_deg": 69.8979,
      "raan_deg": 359.8568,
      "arg_perigee_deg": 311.085,
      "mean_anomaly_deg": 48.9682,
      "mean_motion_rev_day": 15.09261949
    },
    {
      "epoch": "2026-04-27T20:24:32.986656Z",
      "apogee_km": 543.5095515287039,
      "perigee_km": 533.3408218018694,
      "latitude_deg": -6.287938470509098e-05,
      "longitude_deg": -164.6770436296942,
      "height_km": 537.6070840556957,
      "semi_major_axis_km": 6916.562186665286,
      "eccentricity": 0.0007351,
      "inclination_deg": 69.8979,
      "raan_deg": 357.2947,
      "arg_perigee_deg": 309.7579,
      "mean_anomaly_deg": 50.2936,
      "mean_motion_rev_day": 15.09271367
    },
    {
      "epoch": "2026-04-28T20:16:06.388032Z",
      "apogee_km": 543.5367429962134,
      "perigee_km": 533.2712128767598,
      "latitude_deg": -4.878469459657665e-06,
      "longitude_deg": -166.10845993303866,
      "height_km": 537.640057205514,
      "semi_major_axis_km": 6916.540977936486,
      "eccentricity": 0.0007421,
      "inclination_deg": 69.8979,
      "raan_deg": 354.7323,
      "arg_perigee_deg": 308.534,
      "mean_anomaly_deg": 51.5158,
      "mean_motion_rev_day": 15.09278309
    },
    {
      "epoch": "2026-04-29T18:32:13.195680Z",
      "apogee_km": 543.5438091598844,
      "perigee_km": 533.221595156383,
      "latitude_deg": -6.836405588224711e-05,
      "longitude_deg": -143.44288510092707,
      "height_km": 537.699731398826,
      "semi_major_axis_km": 6916.519702158133,
      "eccentricity": 0.0007462,
      "inclination_deg": 69.8978,
      "raan_deg": 352.3408,
      "arg_perigee_deg": 307.1492,
      "mean_anomaly_deg": 52.8989,
      "mean_motion_rev_day": 15.09285273
    },
    {
      "epoch": "2026-04-30T15:12:53.471808Z",
      "apogee_km": 543.5575735610391,
      "perigee_km": 533.1709253047411,
      "latitude_deg": -4.165851946400282e-05,
      "longitude_deg": -96.68060212774806,
      "height_km": 537.7519052520296,
      "semi_major_axis_km": 6916.50124943289,
      "eccentricity": 0.00075086,
      "inclination_deg": 69.8976,
      "raan_deg": 350.1201,
      "arg_perigee_deg": 305.9134,
      "mean_anomaly_deg": 54.1332,
      "mean_motion_rev_day": 15.09291313
    },
    {
      "epoch": "2026-05-02T08:34:12.873216Z",
      "apogee_km": 543.6209191171492,
      "perigee_km": 533.0138446770716,
      "latitude_deg": 6.957948564623058e-06,
      "longitude_deg": -3.151531431097705,
      "height_km": 537.8213476592609,
      "semi_major_axis_km": 6916.45438189711,
      "eccentricity": 0.0007668,
      "inclination_deg": 69.8972,
      "raan_deg": 345.6784,
      "arg_perigee_deg": 303.5369,
      "mean_anomaly_deg": 56.5062,
      "mean_motion_rev_day": 15.09306654
    }
  ]
}